[{"OBJECT_NAME":"RIGIDSPHERE 2 (LCS 4)","OBJECT_ID":"1971-067E","EPOCH":"2026-03-09T21:07:13.855872","MEAN_MOTION":14.3774295,"ECCENTRICITY":0.00588572,"INCLINATION":87.6274,"RA_OF_ASC_NODE":6.3575,"ARG_OF_PERICENTER":200.3798,"MEAN_ANOMALY":159.5053,"EPHEMERIS_TYPE":0,"CLASSIFICATION_TYPE":"U","NORAD_CAT_ID":5398,"ELEMENT_SET_NO":999,"REV_AT_EPOCH":85961,"BSTAR":0.00030050164,"MEAN_MOTION_DOT":9.4e-6,"MEAN_MOTION_DDOT":0},{"OBJECT_NAME":"OPS 4078 (DMSP 4B F2)","OBJECT_ID":"1968-092A","EPOCH":"2026-03-09T21:16:17.407776","MEAN_MOTION":14.28218921,"ECCENTRICITY":0.00286708,"INCLINATION":98.5563,"RA_OF_ASC_NODE":193.3095,"ARG_OF_PERICENTER":258.2617,"MEAN_ANOMALY":101.5347,"EPHEMERIS_TYPE":0,"CLASSIFICATION_TYPE":"U","NORAD_CAT_ID":3510,"ELEMENT_SET_NO":999,"REV_AT_EPOCH":98307,"BSTAR":9.5982727e-5,"MEAN_MOTION_DOT":1.97e-6,"MEAN_MOTION_DDOT":0}]
